[{"OBJECT_NAME":"STARLINK-33992","OBJECT_ID":"2025-102E","EPOCH":"2026-03-09T12:46:45.300000","MEAN_MOTION":14.98329614,"ECCENTRICITY":0.00036172,"INCLINATION":70.0008,"RA_OF_ASC_NODE":115.0553,"ARG_OF_PERICENTER":268.2741,"MEAN_ANOMALY":91.8004,"EPHEMERIS_TYPE":0,"CLASSIFICATION_TYPE":"U","NORAD_CAT_ID":64026,"ELEMENT_SET_NO":999,"REV_AT_EPOCH":4601,"BSTAR":0.0003249454,"MEAN_MOTION_DOT":3.786e-5,"MEAN_MOTION_DDOT":0},{"OBJECT_NAME":"FENGYUN 1C DEB","OBJECT_ID":"1999-025BLC","EPOCH":"2026-03-08T16:01:16.538592","MEAN_MOTION":14.99951534,"ECCENTRICITY":0.01625238,"INCLINATION":98.6028,"RA_OF_ASC_NODE":151.5668,"ARG_OF_PERICENTER":148.1189,"MEAN_ANOMALY":212.9995,"EPHEMERIS_TYPE":0,"CLASSIFICATION_TYPE":"U","NORAD_CAT_ID":31222,"ELEMENT_SET_NO":999,"REV_AT_EPOCH":1270,"BSTAR":0.0010673359,"MEAN_MOTION_DOT":0.00017492,"MEAN_MOTION_DDOT":0}]
